{
  "norad_id": 39208,
  "name": "SHIYAN-7 (SY-7)",
  "history": [
    {
      "epoch": "2026-03-28T21:48:11.601504Z",
      "apogee_km": 660.3507827692138,
      "perigee_km": 647.8639077750877,
      "latitude_deg": -3.973989261270665e-05,
      "longitude_deg": -61.825596447334284,
      "height_km": 653.0441496405214,
      "semi_major_axis_km": 7032.244345272151,
      "eccentricity": 0.00088783,
      "inclination_deg": 98.0903,
      "raan_deg": 91.5449,
      "arg_perigee_deg": 49.5065,
      "mean_anomaly_deg": 310.6914,
      "mean_motion_rev_day": 14.72183118
    },
    {
      "epoch": "2026-03-29T02:41:48.693696Z",
      "apogee_km": 660.3424781798021,
      "perigee_km": 647.87009148982,
      "latitude_deg": -9.164587945408543e-06,
      "longitude_deg": -135.2282260674072,
      "height_km": 653.0023904399341,
      "semi_major_axis_km": 7032.243284834811,
      "eccentricity": 0.0008868,
      "inclination_deg": 98.0903,
      "raan_deg": 91.7478,
      "arg_perigee_deg": 48.954,
      "mean_anomaly_deg": 311.2432,
      "mean_motion_rev_day": 14.72183451
    },
    {
      "epoch": "2026-03-30T03:09:54.024192Z",
      "apogee_km": 660.297126320339,
      "perigee_km": 647.897890435167,
      "latitude_deg": -1.3245405807203817e-05,
      "longitude_deg": -142.2409063925693,
      "height_km": 652.7878372848286,
      "semi_major_axis_km": 7032.234508377753,
      "eccentricity": 0.0008816,
      "inclination_deg": 98.0903,
      "raan_deg": 92.7622,
      "arg_perigee_deg": 46.0639,
      "mean_anomaly_deg": 314.1294,
      "mean_motion_rev_day": 14.72186207
    },
    {
      "epoch": "2026-03-30T06:25:38.746848Z",
      "apogee_km": 660.2933114053885,
      "perigee_km": 647.9005461973411,
      "latitude_deg": -2.5531096741846494e-05,
      "longitude_deg": 168.82406815138555,
      "height_km": 652.7611772964682,
      "semi_major_axis_km": 7032.2339288013645,
      "eccentricity": 0.00088114,
      "inclination_deg": 98.0903,
      "raan_deg": 92.8975,
      "arg_perigee_deg": 45.6978,
      "mean_anomaly_deg": 314.495,
      "mean_motion_rev_day": 14.72186389
    },
    {
      "epoch": "2026-03-30T12:57:08.133408Z",
      "apogee_km": 660.2817465579074,
      "perigee_km": 647.9076909809255,
      "latitude_deg": 3.611910629020819e-05,
      "longitude_deg": 70.95415051956853,
      "height_km": 652.7066590568868,
      "semi_major_axis_km": 7032.231718769416,
      "eccentricity": 0.00087981,
      "inclination_deg": 98.0903,
      "raan_deg": 93.168,
      "arg_perigee_deg": 44.9288,
      "mean_anomaly_deg": 315.263,
      "mean_motion_rev_day": 14.72187083
    },
    {
      "epoch": "2026-03-30T21:06:29.862720Z",
      "apogee_km": 660.2640387869042,
      "perigee_km": 647.9205073884395,
      "latitude_deg": 3.250325885849524e-05,
      "longitude_deg": -51.383243869544295,
      "height_km": 652.6418998781089,
      "semi_major_axis_km": 7032.229273087672,
      "eccentricity": 0.00087764,
      "inclination_deg": 98.0903,
      "raan_deg": 93.5061,
      "arg_perigee_deg": 43.9557,
      "mean_anomaly_deg": 316.2347,
      "mean_motion_rev_day": 14.72187851
    },
    {
      "epoch": "2026-03-31T21:34:35.003136Z",
      "apogee_km": 660.2156346731681,
      "perigee_km": 647.9556577117964,
      "latitude_deg": -6.498189967190835e-05,
      "longitude_deg": -58.3950160228851,
      "height_km": 652.456593605793,
      "semi_major_axis_km": 7032.222646192482,
      "eccentricity": 0.0008717,
      "inclination_deg": 98.0903,
      "raan_deg": 94.5206,
      "arg_perigee_deg": 41.0561,
      "mean_anomaly_deg": 319.13,
      "mean_motion_rev_day": 14.72189932
    }
  ]
}